STARLINK-31539          
1 59539U 24074F   26068.16809474 -.00000464  00000+0 -73437-5 0  9993
2 59539  43.0066 346.5499 0001127 353.7108   6.3729 15.27566314105935
OTTER                   
1 62623U 25009Q   26068.72300813  .00012198  00000+0  45151-3 0  9990
2 62623  97.4065 151.3812 0003573 310.7710  49.3219 15.27809545 63722
